GSAT0101 (PRN E11)      
1 37846U 11060A   22208.13955891 -.00000075  00000+0  00000+0 0  9992
2 37846  57.0120  20.2575 0003140  61.2248 298.8305  1.70475233 66893
GSAT0102 (PRN E12)      
1 37847U 11060B   22208.65482802 -.00000074  00000+0  00000+0 0  9996
2 37847  57.0128  20.2433 0002172  17.9708 345.0234  1.70475587 66919
GSAT0103 (PRN E19)      
1 38857U 12055A   22207.00575658 -.00000018  00000+0  00000+0 0  9991
2 38857  55.1482 140.6397 0004200 271.2258  88.6894  1.70473817 60907
GSAT0104 (PRN E20)      
1 38858U 12055B   22208.14898795 -.00000014  00000+0  00000+0 0  9994
2 38858  55.1487 140.6097 0001680 275.3533  84.5939  1.70474111 60789
GSAT0201 (PRN E18)      
1 40128U 14050A   22209.17337093 -.00000101  00000+0  00000+0 0  9994
2 40128  50.2567 330.6611 1625043 125.5326 250.7520  1.85519302 51974
GSAT0202 (PRN E14)      
1 40129U 14050B   22208.89522975 -.00000102  00000+0  00000+0 0  9999
2 40129  50.2813 329.7339 1622171 126.3329 249.7824  1.85519872 54134
GSAT0203 (PRN E26)      
1 40544U 15017A   22207.92000062 -.00000076  00000+0  00000+0 0  9995
2 40544  56.8074  20.2913 0001614 209.2739 150.7413  1.70476170 44978
GSAT0204 (PRN E22)      
1 40545U 15017B   22208.75937940 -.00000074  00000+0  00000+0 0  9990
2 40545  56.8134  20.2811 0002131 182.3095 177.7123  1.70475772  8035
GSAT0205 (PRN E24)      
1 40889U 15045A   22203.83389319  .00000016  00000+0  00000+0 0  9992
2 40889  55.6002 260.9865 0003196 359.4062   0.6741  1.70473943 42713
GSAT0206 (PRN E30)      
1 40890U 15045B   22208.74738098  .00000042  00000+0  00000+0 0  9990
2 40890  55.5963 260.8466 0002131 320.1216  39.9636  1.70473873 42822
GSAT0209 (PRN E09)      
1 41174U 15079A   22208.33487643 -.00000014  00000+0  00000+0 0  9995
2 41174  55.1650 140.3071 0004475 314.2271  45.7036  1.70474160 40556
GSAT0208 (PRN E08)      
1 41175U 15079B   22208.55434137 -.00000013  00000+0  00000+0 0  9999
2 41175  55.1634 140.2997 0003855 313.8575  46.0791  1.70474142 40976
GSAT0211 (PRN E02)      
1 41549U 16030A   22209.26037058  .00000044  00000+0  00000+0 0  9995
2 41549  55.7417 260.7697 0003885 301.6039  58.4594  1.70475392 38461
GSAT0210 (PRN E01)      
1 41550U 16030B   22208.96639890  .00000043  00000+0  00000+0 0  9994
2 41550  55.7414 260.7792 0004098 270.6149  89.4393  1.70475451 38456
GSAT0207 (PRN E07)      
1 41859U 16069A   22206.28186466 -.00000019  00000+0  00000+0 0  9991
2 41859  54.8252 140.5353 0004661 300.0960  59.8204  1.70472783 35141
GSAT0212 (PRN E03)      
1 41860U 16069B   22208.48162736 -.00000013  00000+0  00000+0 0  9995
2 41860  54.8231 140.4719 0003414 324.9738  34.9713  1.70472766 35430
GSAT0213 (PRN E04)      
1 41861U 16069C   22207.08723788 -.00000018  00000+0  00000+0 0  9996
2 41861  54.8253 140.5158 0004212 279.3922  80.5237  1.70472952 35275
GSAT0214 (PRN E05)      
1 41862U 16069D   22207.23433925 -.00000018  00000+0  00000+0 0  9995
2 41862  54.8236 140.5062 0003422 284.7566  75.1692  1.70472853 35407
GSAT0215 (PRN E21)      
1 43055U 17079A   22208.89803235  .00000043  00000+0  00000+0 0  9998
2 43055  55.7176 260.6115 0003632 264.0172  96.0425  1.70474592 28776
GSAT0216 (PRN E25)      
1 43056U 17079B   22206.84388828  .00000035  00000+0  00000+0 0  9999
2 43056  55.7191 260.6679 0005337 269.9958  90.0389  1.70474706 28757
GSAT0217 (PRN E27)      
1 43057U 17079C   22205.30437547  .00000027  00000+0  00000+0 0  9994
2 43057  55.7181 260.7100 0004559 280.0916  79.9454  1.70474736 28718
GSAT0218 (PRN E31)      
1 43058U 17079D   22207.28417449  .00000037  00000+0  00000+0 0  9994
2 43058  55.7170 260.6528 0005668 267.1772  92.8555  1.70474673 28770
GSAT0221 (PRN E15)      
1 43564U 18060A   22209.52918171 -.00000071  00000+0  00000+0 0  9993
2 43564  57.1890  20.0736 0001389 265.5556  94.4494  1.70476040 24961
GSAT0222 (PRN E33)      
1 43565U 18060B   22208.57588558 -.00000074  00000+0  00000+0 0  9993
2 43565  57.1916  20.0998 0000998 297.1401  62.8724  1.70476026 24998
GSAT0219 (PRN E36)      
1 43566U 18060C   22208.79643157 -.00000073  00000+0  00000+0 0  9994
2 43566  57.1923  20.0959 0000643 299.1119  60.9039  1.70476025 24974
GSAT0220 (PRN E13)      
1 43567U 18060D   22204.91048447 -.00000083  00000+0  00000+0 0  9997
2 43567  57.1907  20.2004 0000822 273.4493  86.5682  1.70476003 24894
GSAT0223                
1 49809U 21116A   22207.11534497 -.00000078  00000+0  00000+0 0  9992
2 49809  57.1840  20.0395 0002821 143.8208 219.3912  1.70476218  3944
GSAT0224                
1 49810U 21116B   22208.97757733 -.00000073  00000+0  00000+0 0  9994
2 49810  57.1858  19.9874 0002643 131.2300  47.3574  1.70476210  3990
